[{"OBJECT_NAME":"LEMUR-2-AMANDA-SVANTE","OBJECT_ID":"2021-034B","EPOCH":"2026-03-09T18:37:58.823328","MEAN_MOTION":15.28469003,"ECCENTRICITY":0.00027027,"INCLINATION":97.5829,"RA_OF_ASC_NODE":144.8625,"ARG_OF_PERICENTER":205.4721,"MEAN_ANOMALY":154.6385,"EPHEMERIS_TYPE":0,"CLASSIFICATION_TYPE":"U","NORAD_CAT_ID":48269,"ELEMENT_SET_NO":999,"REV_AT_EPOCH":26584,"BSTAR":0.0011134246,"MEAN_MOTION_DOT":0.00030872,"MEAN_MOTION_DDOT":0},{"OBJECT_NAME":"STARLINK-30926","OBJECT_ID":"2023-183M","EPOCH":"2026-03-09T22:57:33.417792","MEAN_MOTION":15.26727764,"ECCENTRICITY":0.00025494,"INCLINATION":43.002,"RA_OF_ASC_NODE":39.3381,"ARG_OF_PERICENTER":295.1193,"MEAN_ANOMALY":64.9394,"EPHEMERIS_TYPE":0,"CLASSIFICATION_TYPE":"U","NORAD_CAT_ID":58448,"ELEMENT_SET_NO":999,"REV_AT_EPOCH":12678,"BSTAR":-6.3321794e-5,"MEAN_MOTION_DOT":-1.958e-5,"MEAN_MOTION_DDOT":0}]
